NORAD_CAT_ID,OBJECT_NAME,OBJECT_TYPE,EPOCH,MEAN_MOTION,ECCENTRICITY,INCLINATION,RA_OF_ASC_NODE,ARG_OF_PERICENTER,MEAN_ANOMALY,BSTAR,MEAN_MOTION_DOT,MEAN_MOTION_DDOT,TLE_LINE0,TLE_LINE1,TLE_LINE2,SEMIMAJOR_AXIS,PERIOD,APOGEE,PERIGEE,DECAYED
53974.0,STARLINK-5159,PAYLOAD,2024-04-11 06:45:35,15.08838289,0.0001428,53.2165,94.5108,95.3667,264.7488,2.1004e-05,4.6e-07,0.0,0 STARLINK-5159,1 53974U 22125L   24102.28166515  .00000046  00000-0  21004-4 0  9994,2 53974  53.2165  94.5108 0001428  95.3667 264.7488 15.08838289 84395,6917.886,95.438,540.738,538.763,0.0
53974.0,STARLINK-5159,PAYLOAD,2024-04-11 16:17:54,15.08839619,0.0001428,53.2167,92.7265,94.0839,266.0317,3.7862e-05,3.15e-06,0.0,0 STARLINK-5159,1 53974U 22125L   24102.67910433  .00000315  00000-0  37862-4 0  9991,2 53974  53.2167  92.7265 0001428  94.0839 266.0317 15.08839619 84381,6917.882,95.438,540.734,538.759,0.0
53974.0,STARLINK-5159,PAYLOAD,2024-04-12 08:11:46,15.08839478,0.0001435,53.217,89.7524,88.7711,271.3445,8.3966e-05,1.049e-05,0.0,0 STARLINK-5159,1 53974U 22125L   24103.34150468  .00001049  00000-0  83966-4 0  9991,2 53974  53.2170  89.7524 0001435  88.7711 271.3445 15.08839478 84559,6917.882,95.438,540.74,538.754,0.0
53974.0,STARLINK-5159,PAYLOAD,2024-04-13 04:51:47,15.08832184,0.0001328,53.2172,85.8864,108.5076,251.6061,-3.5495e-05,-8.53e-06,0.0,0 STARLINK-5159,1 53974U 22125L   24104.20263445 -.00000853  00000-0 -35495-4 0  9995,2 53974  53.2172  85.8864 0001328 108.5076 251.6061 15.08832184 84687,6917.904,95.438,540.688,538.851,0.0
53974.0,STARLINK-5159,PAYLOAD,2024-04-14 03:07:12,15.0880551,0.0001204,53.2178,81.722,113.0254,247.0865,0.00023984,3.528e-05,0.0,0 STARLINK-5159,1 53974U 22125L   24105.13001045  .00003528  00000-0  23984-3 0  9993,2 53974  53.2178  81.7220 0001204 113.0254 247.0865 15.08805510 84826,6917.986,95.44,540.684,539.018,0.0
53974.0,STARLINK-5159,PAYLOAD,2024-04-14 22:11:48,15.0884917,0.000139,53.2173,78.1545,88.6288,271.4863,0.00013939,1.932e-05,0.0,0 STARLINK-5159,1 53974U 22125L   24105.92486707  .00001932  00000-0  13939-3 0  9998,2 53974  53.2173  78.1545 0001390  88.6288 271.4863 15.08849170 84875,6917.852,95.437,540.679,538.756,0.0
53974.0,STARLINK-5159,PAYLOAD,2024-04-15 04:33:20,15.08848927,0.0001586,53.2181,76.9692,84.4224,275.6949,0.00032596,4.905e-05,0.0,0 STARLINK-5159,1 53974U 22125L   24106.18982128  .00004905  00000-0  32596-3 0  9998,2 53974  53.2181  76.9692 0001586  84.4224 275.6949 15.08848927 84986,6917.853,95.437,540.815,538.621,0.0
53974.0,STARLINK-5159,PAYLOAD,2024-04-15 07:44:06,15.08854664,0.000152,53.218,76.3696,95.5641,264.5524,0.00036502,5.528e-05,0.0,0 STARLINK-5159,1 53974U 22125L   24106.32229600  .00005528  00000-0  36502-3 0  9996,2 53974  53.2180  76.3696 0001520  95.5641 264.5524 15.08854664 84933,6917.836,95.437,540.752,538.649,0.0
53974.0,STARLINK-5159,PAYLOAD,2024-04-15 22:02:36,15.08847459,0.000138,53.2187,73.7018,70.1762,289.9379,-5.5664e-06,-3.77e-06,0.0,0 STARLINK-5159,1 53974U 22125L   24106.91847345 -.00000377  00000-0 -55664-5 0  9994,2 53974  53.2187  73.7018 0001380  70.1762 289.9379 15.08847459 85020,6917.858,95.437,540.677,538.768,0.0
53974.0,STARLINK-5159,PAYLOAD,2024-04-16 02:48:44,15.08851701,0.0001819,53.217,72.7929,127.4518,232.664,7.462e-05,9e-06,0.0,0 STARLINK-5159,1 53974U 22125L   24107.11718343  .00000900  00000-0  74620-4 0  9994,2 53974  53.2170  72.7929 0001819 127.4518 232.6640 15.08851701 85126,6917.845,95.437,540.968,538.451,0.0
53974.0,STARLINK-5159,PAYLOAD,2024-04-16 07:34:54,15.08852952,0.0001474,53.2178,71.9069,109.1258,250.9894,7.0857e-05,8.4e-06,0.0,0 STARLINK-5159,1 53974U 22125L   24107.31590391  .00000840  00000-0  70857-4 0  9998,2 53974  53.2178  71.9069 0001474 109.1258 250.9894 15.08852952 85083,6917.841,95.437,540.725,538.686,0.0
53974.0,STARLINK-5159,PAYLOAD,2024-04-17 04:14:54,15.08860065,0.000165,53.2183,68.0423,95.2355,264.8825,-4.9776e-05,-1.081e-05,0.0,0 STARLINK-5159,1 53974U 22125L   24108.17701769 -.00001081  00000-0 -49776-4 0  9992,2 53974  53.2183  68.0423 0001650  95.2355 264.8825 15.08860065 85283,6917.819,95.436,540.825,538.543,0.0
53974.0,STARLINK-5159,PAYLOAD,2024-04-17 07:25:40,15.08858018,0.000165,53.2174,67.4465,95.6553,264.4627,1.7652e-06,-2.6e-06,0.0,0 STARLINK-5159,1 53974U 22125L   24108.30949476 -.00000260  00000-0  17652-5 0  9992,2 53974  53.2174  67.4465 0001650  95.6553 264.4627 15.08858018 85232,6917.825,95.436,540.832,538.549,0.0
53974.0,STARLINK-5159,PAYLOAD,2024-04-18 04:05:42,15.0882791,0.0001104,53.2168,63.5816,101.8472,258.2644,-0.00012248,-2.236e-05,0.0,0 STARLINK-5159,1 53974U 22125L   24109.17063481 -.00002236  00000-0 -12248-3 0  9991,2 53974  53.2168  63.5816 0001104 101.8472 258.2644 15.08827910 85435,6917.917,95.438,540.546,539.019,0.0
53974.0,STARLINK-5159,PAYLOAD,2024-04-18 08:51:52,15.08836481,0.0001063,53.2166,62.6904,104.1133,255.9977,3.9592e-05,3.42e-06,0.0,0 STARLINK-5159,1 53974U 22125L   24109.36935231  .00000342  00000-0  39592-4 0  9999,2 53974  53.2166  62.6904 0001063 104.1133 255.9977 15.08836481 85464,6917.891,95.438,540.492,539.021,0.0
53974.0,STARLINK-5159,PAYLOAD,2024-04-18 21:34:57,15.08835062,0.0001046,53.2163,60.3128,102.6602,257.4507,3.4153e-05,2.56e-06,0.0,0 STARLINK-5159,1 53974U 22125L   24109.89927455  .00000256  00000-0  34153-4 0  9998,2 53974  53.2163  60.3128 0001046 102.6602 257.4507 15.08835062 85470,6917.895,95.438,540.484,539.037,0.0
53974.0,STARLINK-5159,PAYLOAD,2024-04-19 08:42:39,15.08877723,7.54e-05,53.2159,58.2317,95.6124,264.4954,0.002252,0.00035772,0.0,0 STARLINK-5159,1 53974U 22125L   24110.36295426  .00035772  00000-0  22520-2 0  9992,2 53974  53.2159  58.2317 0000754  95.6124 264.4954 15.08877723 85616,6917.765,95.435,540.152,539.108,0.0
53974.0,STARLINK-5159,PAYLOAD,2024-04-19 19:50:21,15.08873704,8.29e-05,53.2159,56.1494,92.3155,267.7932,0.0016047,0.00025367,0.0,0 STARLINK-5159,1 53974U 22125L   24110.82663364  .00025367  00000-0  16047-2 0  9999,2 53974  53.2159  56.1494 0000829  92.3155 267.7932 15.08873704 85684,6917.777,95.435,540.216,539.069,0.0
53974.0,STARLINK-5159,PAYLOAD,2024-04-19 21:25:44,15.08878792,7.8e-05,53.2159,55.8523,83.3656,276.7425,0.002326,0.00036964,0.0,0 STARLINK-5159,1 53974U 22125L   24110.89287291  .00036964  00000-0  23260-2 0  9997,2 53974  53.2159  55.8523 0000780  83.3656 276.7425 15.08878792 85628,6917.762,95.435,540.166,539.087,0.0
53974.0,STARLINK-5159,PAYLOAD,2024-04-20 08:33:24,15.08916527,8.17e-05,53.2158,53.7706,71.068,289.0401,0.0031158,0.00049754,0.0,0 STARLINK-5159,1 53974U 22125L   24111.35653651  .00049754  00000-0  31158-2 0  9992,2 53974  53.2158  53.7706 0000817  71.0680 289.0401 15.08916527 85764,6917.646,95.433,540.077,538.946,0.0
53974.0,STARLINK-5159,PAYLOAD,2024-04-20 19:41:07,15.08831954,0.0001431,53.2161,51.6893,111.5457,248.5688,3.5306e-06,-2.32e-06,0.0,0 STARLINK-5159,1 53974U 22125L   24111.82023094 -.00000232  00000-0  35306-5 0  9997,2 53974  53.2161  51.6893 0001431 111.5457 248.5688 15.08831954 85832,6917.905,95.438,540.76,538.78,0.0
53974.0,STARLINK-5159,PAYLOAD,2024-04-20 21:16:30,15.08831729,0.0001191,53.2159,51.3918,95.2835,264.8293,-8.0684e-05,-1.571e-05,0.0,0 STARLINK-5159,1 53974U 22125L   24111.88646948 -.00001571  00000-0 -80684-4 0  9998,2 53974  53.2159  51.3918 0001191  95.2835 264.8293 15.08831729 85771,6917.906,95.438,540.595,538.947,0.0
53974.0,STARLINK-5159,PAYLOAD,2024-04-21 08:24:13,15.08864992,0.0001362,53.2161,49.3103,96.7987,263.316,0.0026059,0.00041458,0.0,0 STARLINK-5159,1 53974U 22125L   24112.35015154  .00041458  00000-0  26059-2 0  9990,2 53974  53.2161  49.3103 0001362  96.7987 263.3160 15.08864992 85844,6917.804,95.436,540.611,538.727,0.0
53974.0,STARLINK-5159,PAYLOAD,2024-04-21 19:31:55,15.08859551,0.0001317,53.2162,47.229,85.6393,274.475,0.0020242,0.00032091,0.0,0 STARLINK-5159,1 53974U 22125L   24112.81383491  .00032091  00000-0  20242-2 0  9994,2 53974  53.2162  47.2290 0001317  85.6393 274.4750 15.08859551 85985,6917.821,95.436,540.597,538.775,0.0
53974.0,STARLINK-5159,PAYLOAD,2024-04-21 21:07:18,15.08861202,0.0001347,53.2163,46.9319,85.4502,274.6644,0.0037461,0.00059873,0.0,0 STARLINK-5159,1 53974U 22125L   24112.88007511  .00059873  00000-0  37461-2 0  9995,2 53974  53.2163  46.9319 0001347  85.4502 274.6644 15.08861202 85921,6917.816,95.436,540.612,538.749,0.0
53974.0,STARLINK-5159,PAYLOAD,2024-04-22 06:39:36,15.08908365,0.0001332,53.2167,45.1471,90.8486,269.2659,0.0034369,0.0005494,0.0,0 STARLINK-5159,1 53974U 22125L   24113.27750279  .00054940  00000-0  34369-2 0  9999,2 53974  53.2167  45.1471 0001332  90.8486 269.2659 15.08908365 86053,6917.671,95.433,540.458,538.615,0.0
53974.0,STARLINK-5159,PAYLOAD,2024-04-22 19:22:42,15.08813364,9.19e-05,53.217,42.7689,140.9342,219.1717,0.0029591,0.00047086,0.0,0 STARLINK-5159,1 53974U 22125L   24113.80743413  .00047086  00000-0  29591-2 0  9994,2 53974  53.2170  42.7689 0000919 140.9342 219.1717 15.08813364 86131,6917.962,95.439,540.463,539.191,0.0
53974.0,STARLINK-5159,PAYLOAD,2024-04-22 22:33:28,15.08822584,0.0001504,53.2171,42.1744,115.5173,244.5975,0.002166,0.00034336,0.0,0 STARLINK-5159,1 53974U 22125L   24113.93991669  .00034336  00000-0  21660-2 0  9999,2 53974  53.2171  42.1744 0001504 115.5173 244.5975 15.08822584 86085,6917.934,95.439,540.839,538.758,0.0
53974.0,STARLINK-5159,PAYLOAD,2024-04-23 14:27:20,15.08826613,0.0001653,53.2174,39.2006,123.326,236.7891,0.00092615,0.00014477,0.0,0 STARLINK-5159,1 53974U 22125L   24114.60232338  .00014477  00000-0  92615-3 0  9998,2 53974  53.2174  39.2006 0001653 123.3260 236.7891 15.08826613 86183,6917.921,95.438,540.93,538.643,0.0
53974.0,STARLINK-5159,PAYLOAD,2024-04-23 20:48:53,15.08841663,0.0001257,53.2175,38.0112,108.6552,251.4576,0.0017287,0.00027333,0.0,0 STARLINK-5159,1 53974U 22125L   24114.86728576  .00027333  00000-0  17287-2 0  9996,2 53974  53.2175  38.0112 0001257 108.6552 251.4576 15.08841663 86297,6917.875,95.437,540.61,538.871,0.0
